{
    "links": {
        "self": "http://www.neowsapp.com/rest/v1/neo/3827313?api_key=iIulBulltgU6a56xZRHN4H3l9WmuAYTsLGpBGhQ2"
    },
    "id": "3827313",
    "neo_reference_id": "3827313",
    "name": "(2018 RX1)",
    "designation": "2018 RX1",
    "nasa_jpl_url": "http://ssd.jpl.nasa.gov/sbdb.cgi?sstr=3827313",
    "absolute_magnitude_h": 25.1,
    "estimated_diameter": {
        "kilometers": {
            "estimated_diameter_min": 0.0253837029,
            "estimated_diameter_max": 0.0567596853
        },
        "meters": {
            "estimated_diameter_min": 25.3837029364,
            "estimated_diameter_max": 56.7596852866
        },
        "miles": {
            "estimated_diameter_min": 0.0157726969,
            "estimated_diameter_max": 0.0352688224
        },
        "feet": {
            "estimated_diameter_min": 83.279867942,
            "estimated_diameter_max": 186.2194458756
        }
    },
    "is_potentially_hazardous_asteroid": false,
    "close_approach_data": [
        {
            "close_approach_date": "2018-09-01",
            "close_approach_date_full": "2018-Sep-01 15:55",
            "epoch_date_close_approach": 1535817300000,
            "relative_velocity": {
                "kilometers_per_second": "8.097435959",
                "kilometers_per_hour": "29150.769452409",
                "miles_per_hour": "18113.1544966927"
            },
            "miss_distance": {
                "astronomical": "0.0715251128",
                "lunar": "27.8232688792",
                "kilometers": "10700004.526389736",
                "miles": "6648674.5095649168"
            },
            "orbiting_body": "Earth"
        }
    ],
    "orbital_data": {
        "orbit_id": "7",
        "orbit_determination_date": "2018-10-02 06:27:29",
        "first_observation_date": "2018-09-06",
        "last_observation_date": "2018-09-22",
        "data_arc_in_days": 16,
        "observations_used": 43,
        "orbit_uncertainty": "8",
        "minimum_orbit_intersection": ".0684521",
        "jupiter_tisserand_invariant": "4.525",
        "epoch_osculation": "2458371.5",
        "eccentricity": ".2908336833257734",
        "semi_major_axis": "1.472733755335305",
        "inclination": "13.01549331864686",
        "ascending_node_longitude": "167.9266127627821",
        "orbital_period": "652.8069785949516",
        "perihelion_distance": "1.04441317271294",
        "perihelion_argument": "145.816685938175",
        "aphelion_distance": "1.901054337957671",
        "perihelion_time": "2458337.849330214614",
        "mean_anomaly": "18.55715628042559",
        "mean_motion": ".5514646929400703",
        "equinox": "J2000",
        "orbit_class": {
            "orbit_class_type": "AMO",
            "orbit_class_description": "Near-Earth asteroid orbits similar to that of 1221 Amor",
            "orbit_class_range": "1.017 AU < q (perihelion) < 1.3 AU"
        }
    },
    "is_sentry_object": false
}